ASIASAT 8               
1 40107U 14046A   17159.29740187 -.00000035  00000-0  00000-0 0  9997
2 40107   0.0123 325.8613 0002222 114.8525 279.3143  1.00271690 69114
ASIASAT 6               
1 40141U 14052A   17159.85257656 -.00000363  00000-0  00000-0 0  9992
2 40141   0.0242  72.6610 0000914   1.4823 250.1060  1.00270864 10018
OPTUS 10                
1 40146U 14054A   17158.83228525 -.00000077  00000-0  00000-0 0  9991
2 40146   0.0413  74.3595 0001616 358.9416 286.7188  1.00272491  9980
MEASAT-3B               
1 40147U 14054B   17159.03313078 -.00000243  00000-0  00000-0 0  9998
2 40147   0.0251   1.9655 0002094  44.5302 313.5242  1.00268952 10122
LUCH (OLYMP)            
1 40258U 14058A   17159.71996984  .00000067  00000-0  00000-0 0  9996
2 40258   0.0515 139.8771 0000677 265.2505 121.2272  1.00273625  9892
HIMAWARI-8              
1 40267U 14060A   17158.89693016 -.00000278  00000-0  00000-0 0  9992
2 40267   0.0135 346.0069 0001333 109.2636 264.7471  1.00270901  9713
IRNSS-1C                
1 40269U 14061A   17159.74992592 -.00000160  00000-0  00000-0 0  9991
2 40269   3.0359 249.8678 0018714   6.2719 354.2408  1.00272357  9779
INTELSAT 30 (IS-30)     
1 40271U 14062A   17158.51877266 -.00000153  00000-0  00000-0 0  9991
2 40271   0.0162 310.5799 0002204 248.2001 148.9739  1.00274628  9701
ARSAT 1                 
1 40272U 14062B   17158.41583624 -.00000262  00000-0  00000-0 0  9994
2 40272   0.0487 135.7007 0001374 299.0989 259.0962  1.00271711  9822
EXPRESS-AM6             
1 40277U 14064A   17159.82827108  .00000097  00000-0  00000-0 0  9990
2 40277   0.0102 342.5865 0001061 133.2418 132.7405  1.00272100  8540
GSAT-16                 
1 40332U 14078A   17159.13411978  .00000083  00000-0  00000-0 0  9990
2 40332   0.0749 272.3910 0007973 163.4552 284.2456  1.00272651  9082
DIRECTV 14              
1 40333U 14078B   17159.60692976 -.00000126  00000-0  00000-0 0  9991
2 40333   0.0161 297.0735 0001111  57.1492  22.2165  1.00271379  9207
YAMAL 401               
1 40345U 14082A   17158.72315924 -.00000231  00000-0  00000-0 0  9993
2 40345   0.0591 115.0015 0000436  36.8660  94.6955  1.00270538  9359
ASTRA 2G                
1 40364U 14089A   17159.20858994  .00000148  00000-0  00000-0 0  9990
2 40364   0.0389  38.1265 0005120  25.5986 296.3304  1.00273167  8920
FENGYUN 2G              
1 40367U 14090A   17159.70598632 -.00000327  00000-0  00000-0 0  9990
2 40367   0.4516 257.0578 0003716 327.9893  30.6613  1.00260724  8997
INMARSAT 5-F2           
1 40384U 15005A   17159.58035370 -.00000286  00000-0  00000-0 0  9991
2 40384   0.0234 339.2299 0000071   7.7663  64.0999  1.00270743  7978
ABS-3A                  
1 40424U 15010A   17158.29723110 -.00000029  00000-0  00000-0 0  9990
2 40424   0.0167 339.3787 0002184   9.1913  11.4250  1.00269875  8355
EUTELSAT 115 WEST B     
1 40425U 15010B   17158.60743247 -.00000028  00000-0  00000-0 0  9998
2 40425   0.0012 163.5146 0000272 129.4659  67.0166  1.00272743  8384
EXPRESS-AM7             
1 40505U 15012A   17159.72205501  .00000149  00000-0  00000-0 0  9992
2 40505   0.0083  27.1614 0002286  33.7610 136.3304  1.00275532  8313
IRNSS-1D                
1 40547U 15018A   17159.79434338 -.00000323  00000-0  00000-0 0  9998
2 40547  29.0905 295.1677 0021178 178.4482 181.5280  1.00272970  7951
BEIDOU I1-S             
1 40549U 15019A   17159.27257648 -.00000169  00000-0  00000-0 0  9999
2 40549  54.4091 333.8704 0040278 185.8400 287.7844  1.00295538  8036
THOR 7                  
1 40613U 15022A   17159.28842293 -.00000010  00000-0  00000-0 0  9997
2 40613   0.0097  46.9109 0002851  31.8484 281.2728  1.00269952  7781
TURKMENALEM52E/MONACOSAT
1 40617U 15023A   17159.14243691  .00000101  00000-0  00000-0 0  9994
2 40617   0.0103   0.1640 0002848  75.6598 284.2106  1.00275457  7794
DIRECTV 15              
1 40663U 15026A   17159.57117675 -.00000104  00000-0  00000-0 0  9991
2 40663   0.0420  96.9123 0000546 349.3122 273.7848  1.00273835  7494
SKY MEXICO-1            
1 40664U 15026B   17158.50759644 -.00000237  00000-0  00000-0 0  9999
2 40664   0.0189 349.9348 0002346  84.3829 285.7082  1.00270837  7488
METEOSAT-11 (MSG-4)     
1 40732U 15034A   17158.97014346 -.00000027  00000-0  00000-0 0  9995
2 40732   1.8373 241.6695 0000469 255.0075 105.7923  1.00267191  6994
STAR ONE C4             
1 40733U 15034B   17159.39910337 -.00000266  00000-0  00000-0 0  9993
2 40733   0.0688  73.0245 0002469 346.3390 271.2772  1.00272678  6985
INTELSAT 34 (IS-34)     
1 40874U 15039A   17158.44297188 -.00000288  00000-0  00000-0 0  9995
2 40874   0.0247 330.0305 0000599  43.0408 346.9303  1.00269541  6613
EUTELSAT 8 WEST B       
1 40875U 15039B   17159.30874687 -.00000067  00000-0  00000-0 0  9992
2 40875   0.0656 349.2279 0002935  72.7581 298.0468  1.00272488  6643
GSAT-6                  
1 40880U 15041A   17159.05634616 -.00000167  00000-0  00000-0 0  9990
2 40880   0.0202 290.3476 0005970 350.7774  78.8101  1.00270883  6607
INMARSAT 5-F3           
1 40882U 15042A   17158.78896179  .00000048  00000-0  00000-0 0  9993
2 40882   0.0234 340.1916 0000860 114.4672 265.3510  1.00270412  6517
TJS-1                   
1 40892U 15046A   17159.61419929 -.00000156  00000-0  00000-0 0  9996
2 40892   0.0414  90.1347 0001941 307.3335 235.9150  1.00272746  6502
EXPRESS-AM8             
1 40895U 15048A   17158.60743868 -.00000113  00000-0  00000-0 0  9994
2 40895   0.0931 119.0024 0006233 244.8125  97.1179  1.00271685  6323
BEIDOU I2-S             
1 40938U 15053A   17159.97530679 -.00000161  00000-0  00000-0 0  9996
2 40938  54.2169 296.7649 0047097 172.6246 232.0563  1.00295626  6324
SKY MUSTER (NBN1A)      
1 40940U 15054A   17158.89806288 -.00000281  00000-0  00000-0 0  9995
2 40940   0.0194 334.3835 0002060 101.9086 283.7333  1.00270841  6238
ARSAT 2                 
1 40941U 15054B   17158.51368027 -.00000227  00000-0  00000-0 0  9999
2 40941   0.0432 111.6886 0001731 330.2567 278.0762  1.00271692  6273
MORELOS 3               
1 40946U 15056A   17159.51562345 -.00000048  00000-0  00000-0 0  9997
2 40946   6.4343 329.6460 0001336 190.4208 169.5599  1.00271288  6236
APSTAR 9                
1 40982U 15059A   17159.89045460 -.00000267  00000-0  00000-0 0  9998
2 40982   0.0247 271.7337 0000302 166.2744 281.9987  1.00270481  6118
TURKSAT 4B              
1 40984U 15060A   17159.14814225  .00000113  00000-0  00000-0 0  9992
2 40984   0.0137  41.5930 0002351  33.4337 285.0021  1.00272099  6075
CHINASAT 2C (ZX 2C)     
1 41021U 15063A   17159.75622360 -.00000325  00000-0  00000-0 0  9998
2 41021   0.0161  74.3378 0002211 319.1032 239.5705  1.00272017  5966
GSAT-15                 
1 41028U 15065A   17159.02758896 -.00000260  00000-0  00000-0 0  9999
2 41028   0.0781 274.8531 0003058 134.6839 310.4925  1.00271509  5805
BADR-7 (ARABSAT-6B)     
1 41029U 15065B   17159.21452727  .00000143  00000-0  00000-0 0  9994
2 41029   0.0415 257.4012 0002051 325.4076 137.1779  1.00272754  5709
LAOSAT 1                
1 41034U 15067A   17158.93066673 -.00000345  00000-0  00000-0 0  9996
2 41034   0.0154  53.9776 0001248  79.6890 226.3461  1.00275664  5825
TELSTAR 12V             
1 41036U 15068A   17159.32813965 -.00000120  00000-0  00000-0 0  9998
2 41036   0.0153 327.3779 0002242 113.0294 279.6211  1.00271878  5583
CHINASAT 1C (ZX 1C)     
1 41103U 15073A   17159.92363296 -.00000152  00000-0  00000-0 0  9997
2 41103   0.0078 193.7359 0002336 124.0188 353.7630  1.00273788  5627
ELEKTRO-L 2             
1 41105U 15074A   17159.91646698 -.00000098  00000-0  00000-0 0  9998
2 41105   0.0743 187.5916 0002023 250.0282 225.8861  1.00272268  5476
COSMOS 2513             
1 41121U 15075A   17158.92688263 -.00000140  00000-0  00000-0 0  9999
2 41121   0.1021 101.1681 0001993  48.3811 160.8577  1.00270828  5546
EXPRESS-AMU1            
1 41191U 15082A   17159.72478302  .00000155  00000-0  00000-0 0  9999
2 41191   0.0008  10.4612 0002108  56.5601 127.2678  1.00272517  5467
GAOFEN 4                
1 41194U 15083A   17159.02407150 -.00000336  00000-0  00000-0 0  9991
2 41194   0.0838 100.1585 0003311 118.5068 152.2906  1.00268722  5443
BELINTERSAT-1           
1 41238U 16001A   17158.57399941  .00000104  00000-0  10000-3 0  9994
2 41238   0.0767 137.0465 0001719 282.8143  94.4251  1.00273005  5213
IRNSS-1E                
1 41241U 16003A   17151.92699686 -.00000279  00000-0  00000-0 0  9991
2 41241  28.7592 114.9659 0019172 183.8467  36.2942  1.00270514  5077
INTELSAT 29E (IS-29E)   
1 41308U 16004A   17158.42782859 -.00000285  00000-0  00000-0 0  9990
2 41308   0.0486 117.3297 0002126 327.7303 274.9661  1.00272224  5103
EUTELSAT 9B             
1 41310U 16005A   17159.26152653  .00000060  00000-0  00000-0 0  9990
2 41310   0.0536 120.5386 0001844 220.4347  19.0225  1.00270526  5073
SES-9                   
1 41380U 16013A   17158.98653729 -.00000347  00000-0  00000-0 0  9993
2 41380   0.0175 325.1393 0001948 115.3501 279.5352  1.00272646  4459
EUTELSAT 65 WEST A      
1 41382U 16014A   17159.46716261 -.00000277  00000-0  00000-0 0  9993
2 41382   0.0467   9.5567 0001871  69.3434 281.1239  1.00272415  4513
IRNSS-1F                
1 41384U 16015A   17158.93500989  .00000159  00000-0  00000-0 0  9993
2 41384   4.1760 265.3501 0022679 181.8688 178.4098  1.00277125  4644
BEIDOU IGSO 6           
1 41434U 16021A   17159.85598633 -.00000170  00000-0  10000-3 0  9999
2 41434  55.5305  72.4906 0026625 183.4487  45.3306  1.00272229  4443
IRNSS-1G                
1 41469U 16027A   17159.66719268 -.00000332  00000-0  00000-0 0  9997
2 41469   4.2472 266.6758 0000788 127.2629 233.0362  1.00275286  4157
JCSAT 2B                
1 41471U 16028A   17158.85993902 -.00000168  00000-0  00000-0 0  9997
2 41471   0.0233 345.5796 0002071  91.6876 282.7559  1.00269251  4067
